# Made by eph2tle, compiled Aug 29 2024 08:37:33
# Run at Sun Sep  1 21:59:06 2024
#
#    The following TLEs (Two-Line Elements) were generated by fitting
# a numerically-integrated ephemeris,  based on the orbit given below,
# to the SDP4/SGP4 models.  Each TLE is good for the interval between
# its epoch and the epoch of the subsequent TLE (usually one day).
# The maximum deviation between the numerically integrated ephemerides
# and the TLE-based ephemeris, in kilometers,  is given for each TLE
# as the "worst residual".
#
#    This fitting is done using the 'eph2tle' code packaged with Find_Orb.
# The code has details on how the TLEs were computed :
#
#    https://github.com/Bill-Gray/find_orb/eph2tle.cpp
#
#    Be warned:  the error given is that between the numerically
# integrated ephems and the TLE model.  There will usually be at
# least some additional difference between the ephems and the actual
# motion of the satellite,  especially if the ephemerides are based
# on a short arc.  If the following orbital elements say something
# like "[based on] 10 observations 2015 Jan. 1-13",  and the TLEs
# are for 2015 May,  the extrapolation may be tenuous at best.  If
# your application requires a specific level of accuracy,  you may
# want to contact me;  I can give you some idea as to the fit of the
# underlying data (and possibly TLEs based on newer data).
#
#   You can usually find the underlying observational data,  and the
# fitted orbit,  residuals,  ephemerides,  and sometimes some comments
# about the object,  among the pages listed at
#
#    https://www.projectpluto.com/pluto/mpecs/pseudo.htm
#
#    Also,  if you use a TLE outside the "correct" time range (between
# its MJD and that of the next TLE),  all bets are off.  I've carefully
# computed and minimized the worst error over the "correct" time frame,
# but the ephemeris may (or may not) diverge wildly outside of it.
#
# Ephem range: 60370.000000 60621.000000 1.000000
# Created Sun Sep  1 21:58:34 2024
# Ephemeris start:  1 Mar 2024  0:00:00
# Ephemeris end:    7 Nov 2024  0:00:00
# Times are all TDT
# Positions/velocities are in equatorial J2000
# Orbital elements:  A116XpY = A117bbC
#    Perigee 2024 Aug 12.591565 +/- 0.000357 TT = 14:11:51.2 (JD 2460535.091565)
# A1: (1937.5 +/- 2.9)e-8   A2: (-41.9 +/- 5.5)e-9
# A3: (-138.08 +/- 5.07)e-9 AU/day^2 [1/r^2]
# Epoch 2024 Aug 13.0 TT = JDT 2460535.5                           Find_Orb
# M 147.463889951 +/- 0.12            (J2000 equator)
# n 361.046186310 +/- 0.00241         Peri.   83.666416 +/- 0.048
# a 42159.45598 +/- 0.188             Node    51.861319 +/- 0.017
# e   0.74578027 +/- 0.000188         Incl.   33.160931 +/- 0.0010
# P1435.800m/0.997d          H 32.54  G  0.15   U  8.7
# q 10717.76548 +/- 7.95    Q 73601.14648 +/- 7.95
# From 30 observations 2024 May 28-Aug. 31; mean residual 39".083
#
# 1 NoradU COSPAR   Epoch.epoch     dn/dt/2  d2n/dt2/6 BSTAR    T El# C
# 2 NoradU Inclina RAAscNode Eccent  ArgPeri MeanAno  MeanMotion Rev# C

# Worst residual: 85.02 km
# MJD 60370.000000 (2024 Mar  1  0:00)
A116XpY = A117bbC
1 79924U 24999ZZN 24061.49919926  .00000000  00000-0  00000-0 0 24375
2 79924 008.6636 103.1096 5291318 249.0818 195.7515 00.99937422    01

# Worst residual: 85.76 km
# MJD 60371.000000 (2024 Mar  2  0:00)
A116XpY = A117bbC
1 79924U 24999ZZN 24062.49919926  .00000000  00000-0  00000-0 0 24376
2 79924 008.6626 102.9717 5314357 250.6529 195.3559 00.99970495    04

# Worst residual: 87.92 km
# MJD 60372.000000 (2024 Mar  3  0:00)
A116XpY = A117bbC
1 79924U 24999ZZN 24063.49919926  .00000000  00000-0  00000-0 0 24377
2 79924 008.6612 102.9188 5337869 252.1482 195.0624 01.00002379    09

# Worst residual: 90.34 km
# MJD 60373.000000 (2024 Mar  4  0:00)
A116XpY = A117bbC
1 79924U 24999ZZN 24064.49919926  .00000000  00000-0  00000-0 0 24378
2 79924 008.6611 102.7855 5362366 253.7000 194.9008 01.00028541    03

# Worst residual: 88.58 km
# MJD 60374.000000 (2024 Mar  5  0:00)
A116XpY = A117bbC
1 79924U 24999ZZN 24065.49919926  .00000000  00000-0  00000-0 0 24379
2 79924 008.6573 102.5785 5388568 255.3091 194.8594 01.00057237    03

# Worst residual: 90.11 km
# MJD 60375.000000 (2024 Mar  6  0:00)
A116XpY = A117bbC
1 79924U 24999ZZN 24066.49919926  .00000000  00000-0  00000-0 0 24370
2 79924 008.6537 102.3902 5416598 256.9095 194.9261 01.00095993    01

# Worst residual: 97.79 km
# MJD 60376.000000 (2024 Mar  7  0:00)
A116XpY = A117bbC
1 79924U 24999ZZN 24067.49919926  .00000000  00000-0  00000-0 0 24371
2 79924 008.6525 102.1984 5444507 258.4831 195.1349 01.00125288    03

# Worst residual: 100.98 km
# MJD 60377.000000 (2024 Mar  8  0:00)
A116XpY = A117bbC
1 79924U 24999ZZN 24068.49919926  .00000000  00000-0  00000-0 0 24372
2 79924 008.6494 101.9361 5474156 260.1227 195.4584 01.00157329    01

# Worst residual: 101.64 km
# MJD 60378.000000 (2024 Mar  9  0:00)
A116XpY = A117bbC
1 79924U 24999ZZN 24069.49919926  .00000000  00000-0  00000-0 0 24373
2 79924 008.6457 101.6657 5504529 261.7619 195.9007 01.00182670    07

# Worst residual: 108.66 km
# MJD 60379.000000 (2024 Mar 10  0:00)
A116XpY = A117bbC
1 79924U 24999ZZN 24070.49919926  .00000000  00000-0  00000-0 0 24375
2 79924 008.6442 101.3033 5536587 263.4803 196.4562 01.00217967    09

# Worst residual: 107.12 km
# MJD 60380.000000 (2024 Mar 11  0:00)
A116XpY = A117bbC
1 79924U 24999ZZN 24071.49919926  .00000000  00000-0  00000-0 0 24376
2 79924 008.6401 100.9497 5569004 265.1792 197.1108 01.00239306    04

# Worst residual: 118.18 km
# MJD 60381.000000 (2024 Mar 12  0:00)
A116XpY = A117bbC
1 79924U 24999ZZN 24072.49919926  .00000000  00000-0  00000-0 0 24377
2 79924 008.6418 100.5138 5603088 266.9589 197.8573 01.00265406    07

# Worst residual: 120.57 km
# MJD 60382.000000 (2024 Mar 13  0:00)
A116XpY = A117bbC
1 79924U 24999ZZN 24073.49919926  .00000000  00000-0  00000-0 0 24378
2 79924 008.6412 100.0791 5638500 268.7343 198.6396 01.00278703    02

# Worst residual: 130.00 km
# MJD 60383.000000 (2024 Mar 14  0:00)
A116XpY = A117bbC
1 79924U 24999ZZN 24074.49919926  .00000000  00000-0  00000-0 0 24379
2 79924 008.6434 099.5344 5674204 270.6156 199.4370 01.00267674    03

# Worst residual: 132.76 km
# MJD 60384.000000 (2024 Mar 15  0:00)
A116XpY = A117bbC
1 79924U 24999ZZN 24075.49919926  .00000000  00000-0  00000-0 0 24370
2 79924 008.6454 099.0040 5712140 272.4848 200.2154 01.00278681    04

# Worst residual: 136.92 km
# MJD 60385.000000 (2024 Mar 16  0:00)
A116XpY = A117bbC
1 79924U 24999ZZN 24076.49919926  .00000000  00000-0  00000-0 0 24371
2 79924 008.6544 098.3687 5750107 274.4199 201.0306 01.00278191    03

# Worst residual: 139.96 km
# MJD 60386.000000 (2024 Mar 17  0:00)
A116XpY = A117bbC
1 79924U 24999ZZN 24077.49919926  .00000000  00000-0  00000-0 0 24372
2 79924 008.6648 097.7255 5789206 276.3553 201.8513 01.00283991    01

# Worst residual: 138.42 km
# MJD 60387.000000 (2024 Mar 18  0:00)
A116XpY = A117bbC
1 79924U 24999ZZN 24078.49919926  .00000000  00000-0  00000-0 0 24373
2 79924 008.6765 097.0761 5829215 278.2764 202.6808 01.00290133    08

# Worst residual: 145.46 km
# MJD 60388.000000 (2024 Mar 19  0:00)
A116XpY = A117bbC
1 79924U 24999ZZN 24079.49919926  .00000000  00000-0  00000-0 0 24374
2 79924 008.6982 096.3246 5869454 280.2853 203.5401 01.00296303    04

# Worst residual: 148.07 km
# MJD 60389.000000 (2024 Mar 20  0:00)
A116XpY = A117bbC
1 79924U 24999ZZN 24080.49919926  .00000000  00000-0  00000-0 0 24376
2 79924 008.7220 095.5708 5910539 282.2762 204.4069 01.00302508    01

# Worst residual: 146.94 km
# MJD 60390.000000 (2024 Mar 21  0:00)
A116XpY = A117bbC
1 79924U 24999ZZN 24081.49919926  .00000000  00000-0  00000-0 0 24377
2 79924 008.7541 094.7875 5953270 284.2807 205.2917 01.00309680    03

# Worst residual: 153.11 km
# MJD 60391.000000 (2024 Mar 22  0:00)
A116XpY = A117bbC
1 79924U 24999ZZN 24082.49919926  .00000000  00000-0  00000-0 0 24378
2 79924 008.7858 093.9630 5994416 286.3065 206.1787 01.00314409    00

# Worst residual: 155.42 km
# MJD 60392.000000 (2024 Mar 23  0:00)
A116XpY = A117bbC
1 79924U 24999ZZN 24083.49919926  .00000000  00000-0  00000-0 0 24379
2 79924 008.8266 093.1095 6037041 288.3474 207.0808 01.00320127    08

# Worst residual: 157.43 km
# MJD 60393.000000 (2024 Mar 24  0:00)
A116XpY = A117bbC
1 79924U 24999ZZN 24084.49919926  .00000000  00000-0  00000-0 0 24370
2 79924 008.8741 092.2228 6079960 290.4064 207.9927 01.00325898    00

# Worst residual: 158.51 km
# MJD 60394.000000 (2024 Mar 25  0:00)
A116XpY = A117bbC
1 79924U 24999ZZN 24085.49919926  .00000000  00000-0  00000-0 0 24371
2 79924 008.9270 091.3117 6123167 292.4704 208.9100 01.00333121    09

# Worst residual: 160.13 km
# MJD 60395.000000 (2024 Mar 26  0:00)
A116XpY = A117bbC
1 79924U 24999ZZN 24086.49919926  .00000000  00000-0  00000-0 0 24372
2 79924 008.9921 090.3570 6166151 294.5721 209.8474 01.00338651    03

# Worst residual: 157.72 km
# MJD 60396.000000 (2024 Mar 27  0:00)
A116XpY = A117bbC
1 79924U 24999ZZN 24087.49919926  .00000000  00000-0  00000-0 0 24373
2 79924 009.0547 089.4776 6209906 296.5788 210.7976 01.00344901    00

# Worst residual: 160.84 km
# MJD 60397.000000 (2024 Mar 28  0:00)
A116XpY = A117bbC
1 79924U 24999ZZN 24088.49919926  .00000000  00000-0  00000-0 0 24374
2 79924 009.1448 088.3973 6252232 298.7702 211.7508 01.00354008    09

# Worst residual: 156.01 km
# MJD 60398.000000 (2024 Mar 29  0:00)
A116XpY = A117bbC
1 79924U 24999ZZN 24089.49919926  .00000000  00000-0  00000-0 0 24375
2 79924 009.2355 087.3966 6295783 300.8721 212.7134 01.00370865    07

# Worst residual: 159.62 km
# MJD 60399.000000 (2024 Mar 30  0:00)
A116XpY = A117bbC
1 79924U 24999ZZN 24090.49919926  .00000000  00000-0  00000-0 0 24377
2 79924 009.3345 086.3907 6338141 302.9509 213.7088 01.00371396    03
